{"type": "FeatureCollection", "features": [ {"type": "Feature", "properties": {"norad_id": 66911, "name": "1998-067XX", "group": "stations", "lat": 31.899476824041308, "lon": 108.85048055128367, "alt_km": 402.69669474418333, "timestamp": "2025-12-25T09:48:51.040584+00:00", "meta": {"OBJECT_NAME": "1998-067XX", "OBJECT_ID": "1998-067XX", "EPOCH": "2025-12-24T22:49:37.454880", "MEAN_MOTION": 15.53703475, "ECCENTRICITY": 0.0003529, "INCLINATION": 51.6305, "RA_OF_ASC_NODE": 81.585, "ARG_OF_PERICENTER": 283.5602, "MEAN_ANOMALY": 76.4995, "EPHEMERIS_TYPE": 0, "CLASSIFICATION_TYPE": "U", "NORAD_CAT_ID": 66911, "ELEMENT_SET_NO": 999, "REV_AT_EPOCH": 350, "BSTAR": 0.0011925, "MEAN_MOTION_DOT": 0.00078033, "MEAN_MOTION_DDOT": 0}, "tle": {"line1": "1 66911U 98067XX  25358.95112795  .00078033  00000+0  11925-2 0  9995", "line2": "2 66911  51.6305  81.5850 0003529 283.5602  76.4995 15.53703475  3505"}}, "geometry": {"type": "Point", "coordinates": [108.85048055128367, 31.899476824041308]}}, {"type": "Feature", "properties": {"norad_id": 66912, "name": "1998-067XY", "group": "stations", "lat": -24.04789056684419, "lon": 58.752146062915315, "alt_km": 410.93625929562586, "timestamp": "2025-12-25T09:48:51.040596+00:00", "meta": {"OBJECT_NAME": "1998-067XY", "OBJECT_ID": "1998-067XY", "EPOCH": "2025-12-24T12:19:04.376640", "MEAN_MOTION": 15.52269671, "ECCENTRICITY": 0.00038943, "INCLINATION": 51.6319, "RA_OF_ASC_NODE": 83.9109, "ARG_OF_PERICENTER": 289.4763, "MEAN_ANOMALY": 70.5806, "EPHEMERIS_TYPE": 0, "CLASSIFICATION_TYPE": "U", "NORAD_CAT_ID": 66912, "ELEMENT_SET_NO": 999, "REV_AT_EPOCH": 343, "BSTAR": 0.00087040154, "MEAN_MOTION_DOT": 0.00053773, "MEAN_MOTION_DDOT": 0}, "tle": {"line1": "1 66912U 98067XY  25358.51324510  .00053773  00000+0  87040-3 0  9994", "line2": "2 66912  51.6319  83.9109 0003894 289.4763  70.5806 15.52269671  3434"}}, "geometry": {"type": "Point", "coordinates": [58.752146062915315, -24.04789056684419]}}]}